{
    "links": {
        "self": "http://www.neowsapp.com/rest/v1/neo/3873320?api_key=iIulBulltgU6a56xZRHN4H3l9WmuAYTsLGpBGhQ2"
    },
    "id": "3873320",
    "neo_reference_id": "3873320",
    "name": "(2019 TT)",
    "designation": "2019 TT",
    "nasa_jpl_url": "http://ssd.jpl.nasa.gov/sbdb.cgi?sstr=3873320",
    "absolute_magnitude_h": 24.8,
    "estimated_diameter": {
        "kilometers": {
            "estimated_diameter_min": 0.0291443905,
            "estimated_diameter_max": 0.0651688382
        },
        "meters": {
            "estimated_diameter_min": 29.1443904535,
            "estimated_diameter_max": 65.1688382168
        },
        "miles": {
            "estimated_diameter_min": 0.018109479,
            "estimated_diameter_max": 0.0404940262
        },
        "feet": {
            "estimated_diameter_min": 95.6180819754,
            "estimated_diameter_max": 213.8085311752
        }
    },
    "is_potentially_hazardous_asteroid": false,
    "close_approach_data": [
        {
            "close_approach_date": "2017-09-07",
            "close_approach_date_full": "2017-Sep-07 07:49",
            "epoch_date_close_approach": 1504770540000,
            "relative_velocity": {
                "kilometers_per_second": "15.3306269755",
                "kilometers_per_hour": "55190.257111755",
                "miles_per_hour": "34293.079481468"
            },
            "miss_distance": {
                "astronomical": "0.3456625196",
                "lunar": "134.4627201244",
                "kilometers": "51710376.670993252",
                "miles": "32131338.1134087976"
            },
            "orbiting_body": "Earth"
        },
        {
            "close_approach_date": "2019-10-13",
            "close_approach_date_full": "2019-Oct-13 00:08",
            "epoch_date_close_approach": 1570925280000,
            "relative_velocity": {
                "kilometers_per_second": "7.7099848572",
                "kilometers_per_hour": "27755.9454859506",
                "miles_per_hour": "17246.4651270897"
            },
            "miss_distance": {
                "astronomical": "0.0699119938",
                "lunar": "27.1957655882",
                "kilometers": "10458685.359933206",
                "miles": "6498725.7327460028"
            },
            "orbiting_body": "Earth"
        },
        {
            "close_approach_date": "2021-11-26",
            "close_approach_date_full": "2021-Nov-26 14:40",
            "epoch_date_close_approach": 1637937600000,
            "relative_velocity": {
                "kilometers_per_second": "16.7462392243",
                "kilometers_per_hour": "60286.4612076132",
                "miles_per_hour": "37459.6625209194"
            },
            "miss_distance": {
                "astronomical": "0.4541886796",
                "lunar": "176.6793963644",
                "kilometers": "67945659.046272452",
                "miles": "42219474.7882937576"
            },
            "orbiting_body": "Earth"
        }
    ],
    "orbital_data": {
        "orbit_id": "2",
        "orbit_determination_date": "2019-10-06 05:59:13",
        "first_observation_date": "2019-09-25",
        "last_observation_date": "2019-10-06",
        "data_arc_in_days": 11,
        "observations_used": 18,
        "orbit_uncertainty": "8",
        "minimum_orbit_intersection": ".0452265",
        "jupiter_tisserand_invariant": "4.228",
        "epoch_osculation": "2458753.5",
        "eccentricity": ".3626526226182936",
        "semi_major_axis": "1.620902796970587",
        "inclination": "11.79692054674969",
        "ascending_node_longitude": "189.359311014607",
        "orbital_period": "753.7613840857291",
        "perihelion_distance": "1.033078146639876",
        "perihelion_argument": "199.0724648412689",
        "aphelion_distance": "2.208727447301297",
        "perihelion_time": "2458780.519615933891",
        "mean_anomaly": "347.0953037107371",
        "mean_motion": ".4776047269079194",
        "equinox": "J2000",
        "orbit_class": {
            "orbit_class_type": "AMO",
            "orbit_class_description": "Near-Earth asteroid orbits similar to that of 1221 Amor",
            "orbit_class_range": "1.017 AU < q (perihelion) < 1.3 AU"
        }
    },
    "is_sentry_object": false
}